TRANSPORTER-12 OBJECT AZ
1 62656U 25009AZ  26068.71026235  .00016057  00000+0  54903-3 0  9991
2 62656  97.3981 151.9913 0000987  45.3581 314.7740 15.30349724 63792
STARLINK-35092          
1 65342U 25189V   26068.58420012  .00037187  00000+0  12608-2 0  9993
2 65342  53.1604 207.0206 0000949  87.1219 272.9890 15.30215946 31005
